start=new Date('2022-08-13T00:00:00.000Z').valueOf();
sats=[{"CLASSIFICATION_TYPE":"U","SITE":"AFETR","ECCENTRICITY":"0.00017230","COUNTRY_CODE":"US","REV_AT_EPOCH":"130","RA_OF_ASC_NODE":"96.4649","EPHEMERIS_TYPE":"0","RCS_SIZE":"LARGE","EPOCH":"2022-08-12T22:00:01.999584","NORAD_CAT_ID":"51898","MEAN_MOTION":"15.08850343","MEAN_MOTION_DOT":"-0.00016084","LAUNCH_DATE":"2022-03-03","GP_ID":"210108053","TLE_LINE2":"2 51898  53.2184  96.4649 0001723  66.1676 228.1994 15.08850343  1305","ELEMENT_SET_NO":"999","TLE_LINE1":"1 51898U 22022AY  22224.91668981 -.00016084  00000-0 -99440-3 0  9999","REF_FRAME":"TEME","PERIOD":"95.437","CENTER_NAME":"EARTH","SEMIMAJOR_AXIS":"6917.849","BSTAR":"-0.00099440000000","TIME_SYSTEM":"UTC","OBJECT_TYPE":"PAYLOAD","MEAN_ELEMENT_THEORY":"SGP4","ARG_OF_PERICENTER":"66.1676","OBJECT_NAME":"STARLINK-3597","MEAN_ANOMALY":"228.1994","FILE":"3535519","PERIAPSIS":"538.522","MEAN_MOTION_DDOT":"0.0000000000000","DECAY_DATE":null,"OBJECT_ID":"2022-022AY","APOAPSIS":"540.906","INCLINATION":"53.2184"},{"SITE":"AFETR","CLASSIFICATION_TYPE":"U","ECCENTRICITY":"0.00021510","RCS_SIZE":"LARGE","EPHEMERIS_TYPE":"0","EPOCH":"2022-08-12T22:00:01.999584","MEAN_MOTION":"15.08852835","NORAD_CAT_ID":"51956","REV_AT_EPOCH":"130","RA_OF_ASC_NODE":"126.4776","COUNTRY_CODE":"US","TLE_LINE1":"1 51956U 22025A   22224.91668981 -.00035666  00000-0 -22331-2 0  9998","ELEMENT_SET_NO":"999","REF_FRAME":"TEME","GP_ID":"210108306","TLE_LINE2":"2 51956  53.2167 126.4776 0002151  51.3155 118.0781 15.08852835  1309","LAUNCH_DATE":"2022-03-09","MEAN_MOTION_DOT":"-0.00035666","CENTER_NAME":"EARTH","SEMIMAJOR_AXIS":"6917.841","PERIOD":"95.437","MEAN_ELEMENT_THEORY":"SGP4","ARG_OF_PERICENTER":"51.3155","OBJECT_TYPE":"PAYLOAD","TIME_SYSTEM":"UTC","BSTAR":"-0.00223310000000","FILE":"3535519","OBJECT_NAME":"STARLINK-3700","MEAN_ANOMALY":"118.0781","PERIAPSIS":"538.218","MEAN_MOTION_DDOT":"0.0000000000000","INCLINATION":"53.2167","OBJECT_ID":"2022-025A","DECAY_DATE":null,"APOAPSIS":"541.194"},{"OBJECT_ID":"2022-025B","DECAY_DATE":null,"APOAPSIS":"541.064","INCLINATION":"53.2164","PERIAPSIS":"538.347","MEAN_MOTION_DDOT":"0.0000000000000","OBJECT_NAME":"STARLINK-3694","MEAN_ANOMALY":"207.3046","FILE":"3535519","TIME_SYSTEM":"UTC","BSTAR":"-0.00099270000000","MEAN_ELEMENT_THEORY":"SGP4","ARG_OF_PERICENTER":"62.0826","OBJECT_TYPE":"PAYLOAD","PERIOD":"95.437","CENTER_NAME":"EARTH","SEMIMAJOR_AXIS":"6917.841","GP_ID":"210108056","TLE_LINE2":"2 51957  53.2164 126.4707 0001964  62.0826 207.3046 15.08853038  1308","MEAN_MOTION_DOT":"-0.00016058","LAUNCH_DATE":"2022-03-09","TLE_LINE1":"1 51957U 22025B   22224.91668981 -.00016058  00000-0 -99270-3 0  9990","ELEMENT_SET_NO":"999","REF_FRAME":"TEME","RA_OF_ASC_NODE":"126.4707","REV_AT_EPOCH":"130","COUNTRY_CODE":"US","RCS_SIZE":"LARGE","EPHEMERIS_TYPE":"0","EPOCH":"2022-08-12T22:00:01.999584","MEAN_MOTION":"15.08853038","NORAD_CAT_ID":"51957","SITE":"AFETR","CLASSIFICATION_TYPE":"U","ECCENTRICITY":"0.00019640"},{"SEMIMAJOR_AXIS":"6917.835","CENTER_NAME":"EARTH","PERIOD":"95.437","REF_FRAME":"TEME","ELEMENT_SET_NO":"999","TLE_LINE1":"1 51958U 22025C   22224.91668981 -.00034603  00000-0 -21655-2 0  9998","LAUNCH_DATE":"2022-03-09","MEAN_MOTION_DOT":"-0.00034603","GP_ID":"210084113","TLE_LINE2":"2 51958  53.2176 126.4854 0002381  56.2436 133.2010 15.08854950 25310","NORAD_CAT_ID":"51958","MEAN_MOTION":"15.08854950","EPOCH":"2022-08-12T22:00:01.999584","RCS_SIZE":"LARGE","EPHEMERIS_TYPE":"0","COUNTRY_CODE":"US","REV_AT_EPOCH":"2531","RA_OF_ASC_NODE":"126.4854","ECCENTRICITY":"0.00023810","CLASSIFICATION_TYPE":"U","SITE":"AFETR","INCLINATION":"53.2176","APOAPSIS":"541.347","DECAY_DATE":null,"OBJECT_ID":"2022-025C","MEAN_MOTION_DDOT":"0.0000000000000","PERIAPSIS":"538.053","FILE":"3535502","MEAN_ANOMALY":"133.2010","OBJECT_NAME":"STARLINK-3692","OBJECT_TYPE":"PAYLOAD","MEAN_ELEMENT_THEORY":"SGP4","ARG_OF_PERICENTER":"56.2436","BSTAR":"-0.00216550000000","TIME_SYSTEM":"UTC"},{"CLASSIFICATION_TYPE":"U","SITE":"AFETR","ECCENTRICITY":"0.00024200","RCS_SIZE":"LARGE","EPOCH":"2022-08-12T22:00:01.999584","EPHEMERIS_TYPE":"0","NORAD_CAT_ID":"51959","MEAN_MOTION":"15.08870095","COUNTRY_CODE":"US","REV_AT_EPOCH":"130","RA_OF_ASC_NODE":"126.4722","ELEMENT_SET_NO":"999","TLE_LINE1":"1 51959U 22025D   22224.91668981 -.00035624  00000-0 -22293-2 0  9992","REF_FRAME":"TEME","LAUNCH_DATE":"2022-03-09","MEAN_MOTION_DOT":"-0.00035624","GP_ID":"210107555","TLE_LINE2":"2 51959  53.2156 126.4722 0002420  59.9621 189.4246 15.08870095  1308","CENTER_NAME":"EARTH","SEMIMAJOR_AXIS":"6917.788","PERIOD":"95.436","OBJECT_TYPE":"PAYLOAD","ARG_OF_PERICENTER":"59.9621","MEAN_ELEMENT_THEORY":"SGP4","BSTAR":"-0.00222930000000","TIME_SYSTEM":"UTC","FILE":"3535519","OBJECT_NAME":"STARLINK-3704","MEAN_ANOMALY":"189.4246","PERIAPSIS":"537.979","MEAN_MOTION_DDOT":"0.0000000000000","INCLINATION":"53.2156","DECAY_DATE":null,"OBJECT_ID":"2022-025D","APOAPSIS":"541.328"},{"TLE_LINE1":"1 51960U 22025E   22224.91668981 -.00021441  00000-0 -13318-2 0  9994","ELEMENT_SET_NO":"999","REF_FRAME":"TEME","TLE_LINE2":"2 51960  53.2163 126.4669 0002139  57.5393 231.8118 15.08872604  1303","GP_ID":"210107806","LAUNCH_DATE":"2022-03-09","MEAN_MOTION_DOT":"-0.00021441","CENTER_NAME":"EARTH","SEMIMAJOR_AXIS":"6917.781","PERIOD":"95.435","SITE":"AFETR","CLASSIFICATION_TYPE":"U","ECCENTRICITY":"0.00021390","EPOCH":"2022-08-12T22:00:01.999584","RCS_SIZE":"LARGE","EPHEMERIS_TYPE":"0","MEAN_MOTION":"15.08872604","NORAD_CAT_ID":"51960","RA_OF_ASC_NODE":"126.4669","REV_AT_EPOCH":"130","COUNTRY_CODE":"US","PERIAPSIS":"538.166","MEAN_MOTION_DDOT":"0.0000000000000","INCLINATION":"53.2163","OBJECT_ID":"2022-025E","DECAY_DATE":null,"APOAPSIS":"541.125","MEAN_ELEMENT_THEORY":"SGP4","ARG_OF_PERICENTER":"57.5393","OBJECT_TYPE":"PAYLOAD","TIME_SYSTEM":"UTC","BSTAR":"-0.00133180000000","FILE":"3535519","OBJECT_NAME":"STARLINK-3691","MEAN_ANOMALY":"231.8118"},{"TLE_LINE1":"1 51961U 22025F   22224.91668981 -.00014484  00000-0 -89327-3 0  9998","ELEMENT_SET_NO":"999","REF_FRAME":"TEME","TLE_LINE2":"2 51961  53.2169 126.4792 0002110  61.0733 148.3305 15.08858104  1303","GP_ID":"210108557","MEAN_MOTION_DOT":"-0.00014484","LAUNCH_DATE":"2022-03-09","CENTER_NAME":"EARTH","SEMIMAJOR_AXIS":"6917.825","PERIOD":"95.436","CLASSIFICATION_TYPE":"U","SITE":"AFETR","ECCENTRICITY":"0.00021100","EPOCH":"2022-08-12T22:00:01.999584","RCS_SIZE":"LARGE","EPHEMERIS_TYPE":"0","MEAN_MOTION":"15.08858104","NORAD_CAT_ID":"51961","REV_AT_EPOCH":"130","RA_OF_ASC_NODE":"126.4792","COUNTRY_CODE":"US","PERIAPSIS":"538.230","MEAN_MOTION_DDOT":"0.0000000000000","INCLINATION":"53.2169","OBJECT_ID":"2022-025F","DECAY_DATE":null,"APOAPSIS":"541.150","MEAN_ELEMENT_THEORY":"SGP4","ARG_OF_PERICENTER":"61.0733","OBJECT_TYPE":"PAYLOAD","TIME_SYSTEM":"UTC","BSTAR":"-0.00089327000000","FILE":"3535519","OBJECT_NAME":"STARLINK-3689","MEAN_ANOMALY":"148.3305"},{"PERIOD":"95.436","SEMIMAJOR_AXIS":"6917.803","CENTER_NAME":"EARTH","LAUNCH_DATE":"2022-03-09","MEAN_MOTION_DOT":"-0.00025089","GP_ID":"210084119","TLE_LINE2":"2 51962  53.2176 126.4678 0002289  52.4522 271.7204 15.08865317 25334","REF_FRAME":"TEME","ELEMENT_SET_NO":"999","TLE_LINE1":"1 51962U 22025G   22224.91668981 -.00025089  00000-0 -15626-2 0  9992","COUNTRY_CODE":"US","RA_OF_ASC_NODE":"126.4678","REV_AT_EPOCH":"2533","NORAD_CAT_ID":"51962","MEAN_MOTION":"15.08865317","RCS_SIZE":"LARGE","EPHEMERIS_TYPE":"0","EPOCH":"2022-08-12T22:00:01.999584","ECCENTRICITY":"0.00022890","CLASSIFICATION_TYPE":"U","SITE":"AFETR","APOAPSIS":"541.251","DECAY_DATE":null,"OBJECT_ID":"2022-025G","INCLINATION":"53.2176","MEAN_MOTION_DDOT":"0.0000000000000","PERIAPSIS":"538.085","MEAN_ANOMALY":"271.7204","OBJECT_NAME":"STARLINK-3697","FILE":"3535507","BSTAR":"-0.00156260000000","TIME_SYSTEM":"UTC","OBJECT_TYPE":"PAYLOAD","ARG_OF_PERICENTER":"52.4522","MEAN_ELEMENT_THEORY":"SGP4"},{"PERIAPSIS":"537.943","MEAN_MOTION_DDOT":"0.0000000000000","OBJECT_ID":"2022-025H","DECAY_DATE":null,"APOAPSIS":"541.381","INCLINATION":"53.2176","TIME_SYSTEM":"UTC","BSTAR":"-0.00292190000000","MEAN_ELEMENT_THEORY":"SGP4","ARG_OF_PERICENTER":"60.0942","OBJECT_TYPE":"PAYLOAD","OBJECT_NAME":"STARLINK-3675","MEAN_ANOMALY":"169.2828","FILE":"3535519","GP_ID":"210107055","TLE_LINE2":"2 51963  53.2176 126.4847 0002485  60.0942 169.2828 15.08867305  1305","LAUNCH_DATE":"2022-03-09","MEAN_MOTION_DOT":"-0.00046528","TLE_LINE1":"1 51963U 22025H   22224.91668981 -.00046528  00000-0 -29219-2 0  9997","ELEMENT_SET_NO":"999","REF_FRAME":"TEME","PERIOD":"95.436","CENTER_NAME":"EARTH","SEMIMAJOR_AXIS":"6917.797","SITE":"AFETR","CLASSIFICATION_TYPE":"U","ECCENTRICITY":"0.00024850","RA_OF_ASC_NODE":"126.4847","REV_AT_EPOCH":"130","COUNTRY_CODE":"US","EPOCH":"2022-08-12T22:00:01.999584","RCS_SIZE":"LARGE","EPHEMERIS_TYPE":"0","MEAN_MOTION":"15.08867305","NORAD_CAT_ID":"51963"},{"CLASSIFICATION_TYPE":"U","SITE":"AFETR","ECCENTRICITY":"0.00023950","RCS_SIZE":"LARGE","EPHEMERIS_TYPE":"0","EPOCH":"2022-08-12T22:00:01.999584","NORAD_CAT_ID":"51964","MEAN_MOTION":"15.08862472","COUNTRY_CODE":"US","REV_AT_EPOCH":"130","RA_OF_ASC_NODE":"126.4647","ELEMENT_SET_NO":"999","TLE_LINE1":"1 51964U 22025J   22224.91668981 -.00029210  00000-0 -18234-2 0  9992","REF_FRAME":"TEME","MEAN_MOTION_DOT":"-0.00029210","LAUNCH_DATE":"2022-03-09","GP_ID":"210108307","TLE_LINE2":"2 51964  53.2179 126.4647 0002395  58.9757 310.4048 15.08862472  1301","CENTER_NAME":"EARTH","SEMIMAJOR_AXIS":"6917.812","PERIOD":"95.436","OBJECT_TYPE":"PAYLOAD","MEAN_ELEMENT_THEORY":"SGP4","ARG_OF_PERICENTER":"58.9757","BSTAR":"-0.00182340000000","TIME_SYSTEM":"UTC","FILE":"3535519","OBJECT_NAME":"STARLINK-3690","MEAN_ANOMALY":"310.4048","PERIAPSIS":"538.020","MEAN_MOTION_DDOT":"0.0000000000000","INCLINATION":"53.2179","DECAY_DATE":null,"OBJECT_ID":"2022-025J","APOAPSIS":"541.334"}];
